STRIX-4                 
1 60352U 24137A   26068.65404516  .00020530  00000+0  71820-3 0  9996
2 60352  43.0134 129.8162 0016840   5.2738 354.8289 15.29026223 88766
STARLINK-32242          
1 60429U 24144E   26068.73276010  .00001559  00000+0  64725-4 0  9991
2 60429  53.1610 217.0829 0001160  90.1203 269.9930 15.30209960 89359
