[{"OBJECT_NAME":"STRIX-4","OBJECT_ID":"2024-137A","EPOCH":"2026-03-09T15:41:49.501824","MEAN_MOTION":15.29026224,"ECCENTRICITY":0.00168396,"INCLINATION":43.0134,"RA_OF_ASC_NODE":129.8162,"ARG_OF_PERICENTER":5.2738,"MEAN_ANOMALY":354.8289,"EPHEMERIS_TYPE":0,"CLASSIFICATION_TYPE":"U","NORAD_CAT_ID":60352,"ELEMENT_SET_NO":999,"REV_AT_EPOCH":8876,"BSTAR":0.00071819834,"MEAN_MOTION_DOT":0.0002053,"MEAN_MOTION_DDOT":0},{"OBJECT_NAME":"STARLINK-32242","OBJECT_ID":"2024-144E","EPOCH":"2026-03-09T17:35:10.472640","MEAN_MOTION":15.3020996,"ECCENTRICITY":0.00011597,"INCLINATION":53.161,"RA_OF_ASC_NODE":217.0829,"ARG_OF_PERICENTER":90.1203,"MEAN_ANOMALY":269.993,"EPHEMERIS_TYPE":0,"CLASSIFICATION_TYPE":"U","NORAD_CAT_ID":60429,"ELEMENT_SET_NO":999,"REV_AT_EPOCH":8935,"BSTAR":6.4725255e-5,"MEAN_MOTION_DOT":1.559e-5,"MEAN_MOTION_DDOT":0}]
